SL-14 R/B               
1 16496U 86006B   26117.64802382  .00000712  00000+0  72451-4 0  9998
2 16496  82.5293 213.6631 0077896 110.0945 250.8676 14.86893850156486
COSMOS 1743             
1 16719U 86034A   26117.75529558  .00047809  00000+0  52810-3 0  9994
2 16719  82.5325  22.1721 0007470  99.7570 260.4532 15.62820775187901
SL-14 R/B               
1 16792U 86046B   26117.84099257  .00000509  00000+0  55619-4 0  9993
2 16792  82.4847  33.7418 0024577  67.0450 293.3356 14.85636353133702
SL-14 R/B               
1 16882U 86055B   26117.65370340  .00000468  00000+0  50976-4 0  9992
2 16882  82.5189  80.6348 0019202 165.4622   7.5416 14.85684240126632
AJISAI (EGS)            
1 16908U 86061A   26117.86913728 -.00000082  00000+0  11166-3 0  9994
2 16908  50.0097 302.1235 0011429  53.0947  42.2386 12.44516025474121
SL-14 R/B               
1 17567U 87024B   26117.85653591  .00000496  00000+0  53568-4 0  9995
2 17567  82.5300  46.5488 0019822  97.2294 263.1177 14.86177278 95435
COSMOS 1833             
1 17589U 87027A   26117.77627740 -.00000199  00000+0 -80488-4 0  9993
2 17589  70.9163 222.8367 0022390 138.3401 221.9430 14.13033249 17250
SL-16 R/B               
1 17590U 87027B   26117.60725082  .00000171  00000+0  10853-3 0  9991
2 17590  71.0023 173.4137 0003729  22.2696 337.8589 14.17171944 22276
SL-14 R/B               
1 17912U 87038B   26117.80930822  .00000461  00000+0  50619-4 0  9990
2 17912  82.5007 250.5210 0019314   6.8815 353.2662 14.85412086 86522
COSMOS 1844             
1 17973U 87041A   26117.82947095 -.00000297  00000+0 -12876-3 0  9994
2 17973  70.8980 290.5267 0032818 306.0766  53.7317 14.14559520 10533
SL-14 R/B               
1 18153U 87055B   26117.77760227  .00000468  00000+0  51036-4 0  9994
2 18153  82.4966 302.7581 0019885 207.6091 152.4071 14.85670681 77221
COSMOS 1867             
1 18187U 87060A   26117.41408962 -.00000029  00000+0  26580-4 0  9993
2 18187  65.0096 170.2512 0015439 281.0365  78.8983 14.31509916 26918
SL-14 R/B               
1 18749U 88001B   26117.64159183  .00000388  00000+0  41914-4 0  9991
2 18749  82.5121 149.3281 0019613  77.8347 282.5064 14.85571690 49291
COSMOS 1933             
1 18958U 88020A   26117.69445737  .00003861  00000+0  18626-3 0  9994
2 18958  82.5158 202.4198 0004784  47.9057 312.2583 15.18406762 57661
SL-3 R/B                
1 19046U 88032B   26117.83717718  .00006097  00000+0  28018-3 0  9993
2 19046  97.5233 100.9536 0027425  64.6318 295.7752 15.20409676 59576
SL-16 R/B               
1 19120U 88039B   26117.81081113  .00000124  00000+0  81166-4 0  9993
2 19120  71.0151 324.6825 0024052 265.0345  94.8034 14.19624259965357
COSMOS 1953             
1 19210U 88050A   26117.71189698  .00008288  00000+0  29068-3 0  9993
2 19210  82.5046 108.9014 0009199 318.7822  41.2722 15.29243368 45271
