[{"OBJECT_NAME":"SL-14 R/B","OBJECT_ID":"1986-006B","EPOCH":"2026-04-27T15:33:09.258048","MEAN_MOTION":14.8689385,"ECCENTRICITY":0.0077896,"INCLINATION":82.5293,"RA_OF_ASC_NODE":213.6631,"ARG_OF_PERICENTER":110.0945,"MEAN_ANOMALY":250.8676,"EPHEMERIS_TYPE":0,"CLASSIFICATION_TYPE":"U","NORAD_CAT_ID":16496,"ELEMENT_SET_NO":999,"REV_AT_EPOCH":15648,"BSTAR":7.2451e-5,"MEAN_MOTION_DOT":7.12e-6,"MEAN_MOTION_DDOT":0},{"OBJECT_NAME":"COSMOS 1743","OBJECT_ID":"1986-034A","EPOCH":"2026-04-27T18:07:37.538112","MEAN_MOTION":15.62820775,"ECCENTRICITY":0.000747,"INCLINATION":82.5325,"RA_OF_ASC_NODE":22.1721,"ARG_OF_PERICENTER":99.757,"MEAN_ANOMALY":260.4532,"EPHEMERIS_TYPE":0,"CLASSIFICATION_TYPE":"U","NORAD_CAT_ID":16719,"ELEMENT_SET_NO":999,"REV_AT_EPOCH":18790,"BSTAR":0.0005281,"MEAN_MOTION_DOT":0.00047809,"MEAN_MOTION_DDOT":0},{"OBJECT_NAME":"SL-14 R/B","OBJECT_ID":"1986-046B","EPOCH":"2026-04-27T20:11:01.758048","MEAN_MOTION":14.85636353,"ECCENTRICITY":0.0024577,"INCLINATION":82.4847,"RA_OF_ASC_NODE":33.7418,"ARG_OF_PERICENTER":67.045,"MEAN_ANOMALY":293.3356,"EPHEMERIS_TYPE":0,"CLASSIFICATION_TYPE":"U","NORAD_CAT_ID":16792,"ELEMENT_SET_NO":999,"REV_AT_EPOCH":13370,"BSTAR":5.5619e-5,"MEAN_MOTION_DOT":5.09e-6,"MEAN_MOTION_DDOT":0},{"OBJECT_NAME":"SL-14 R/B","OBJECT_ID":"1986-055B","EPOCH":"2026-04-27T15:41:19.973760","MEAN_MOTION":14.8568424,"ECCENTRICITY":0.0019202,"INCLINATION":82.5189,"RA_OF_ASC_NODE":80.6348,"ARG_OF_PERICENTER":165.4622,"MEAN_ANOMALY":7.5416,"EPHEMERIS_TYPE":0,"CLASSIFICATION_TYPE":"U","NORAD_CAT_ID":16882,"ELEMENT_SET_NO":999,"REV_AT_EPOCH":12663,"BSTAR":5.0976e-5,"MEAN_MOTION_DOT":4.68e-6,"MEAN_MOTION_DDOT":0},{"OBJECT_NAME":"AJISAI (EGS)","OBJECT_ID":"1986-061A","EPOCH":"2026-04-27T20:51:33.460992","MEAN_MOTION":12.44516025,"ECCENTRICITY":0.0011429,"INCLINATION":50.0097,"RA_OF_ASC_NODE":302.1235,"ARG_OF_PERICENTER":53.0947,"MEAN_ANOMALY":42.2386,"EPHEMERIS_TYPE":0,"CLASSIFICATION_TYPE":"U","NORAD_CAT_ID":16908,"ELEMENT_SET_NO":999,"REV_AT_EPOCH":47412,"BSTAR":0.00011166,"MEAN_MOTION_DOT":-8.2e-7,"MEAN_MOTION_DDOT":0},{"OBJECT_NAME":"SL-14 R/B","OBJECT_ID":"1987-024B","EPOCH":"2026-04-27T20:33:24.702624","MEAN_MOTION":14.86177278,"ECCENTRICITY":0.0019822,"INCLINATION":82.53,"RA_OF_ASC_NODE":46.5488,"ARG_OF_PERICENTER":97.2294,"MEAN_ANOMALY":263.1177,"EPHEMERIS_TYPE":0,"CLASSIFICATION_TYPE":"U","NORAD_CAT_ID":17567,"ELEMENT_SET_NO":999,"REV_AT_EPOCH":9543,"BSTAR":5.3568e-5,"MEAN_MOTION_DOT":4.96e-6,"MEAN_MOTION_DDOT":0},{"OBJECT_NAME":"COSMOS 1833","OBJECT_ID":"1987-027A","EPOCH":"2026-04-27T18:37:50.367360","MEAN_MOTION":14.13033249,"ECCENTRICITY":0.002239,"INCLINATION":70.9163,"RA_OF_ASC_NODE":222.8367,"ARG_OF_PERICENTER":138.3401,"MEAN_ANOMALY":221.943,"EPHEMERIS_TYPE":0,"CLASSIFICATION_TYPE":"U","NORAD_CAT_ID":17589,"ELEMENT_SET_NO":999,"REV_AT_EPOCH":1725,"BSTAR":-8.0488e-5,"MEAN_MOTION_DOT":-1.99e-6,"MEAN_MOTION_DDOT":0},{"OBJECT_NAME":"SL-16 R/B","OBJECT_ID":"1987-027B","EPOCH":"2026-04-27T14:34:26.470848","MEAN_MOTION":14.17171944,"ECCENTRICITY":0.0003729,"INCLINATION":71.0023,"RA_OF_ASC_NODE":173.4137,"ARG_OF_PERICENTER":22.2696,"MEAN_ANOMALY":337.8589,"EPHEMERIS_TYPE":0,"CLASSIFICATION_TYPE":"U","NORAD_CAT_ID":17590,"ELEMENT_SET_NO":999,"REV_AT_EPOCH":2227,"BSTAR":0.00010853,"MEAN_MOTION_DOT":1.71e-6,"MEAN_MOTION_DDOT":0},{"OBJECT_NAME":"SL-14 R/B","OBJECT_ID":"1987-038B","EPOCH":"2026-04-27T19:25:24.230208","MEAN_MOTION":14.85412086,"ECCENTRICITY":0.0019314,"INCLINATION":82.5007,"RA_OF_ASC_NODE":250.521,"ARG_OF_PERICENTER":6.8815,"MEAN_ANOMALY":353.2662,"EPHEMERIS_TYPE":0,"CLASSIFICATION_TYPE":"U","NORAD_CAT_ID":17912,"ELEMENT_SET_NO":999,"REV_AT_EPOCH":8652,"BSTAR":5.0619e-5,"MEAN_MOTION_DOT":4.61e-6,"MEAN_MOTION_DDOT":0},{"OBJECT_NAME":"COSMOS 1844","OBJECT_ID":"1987-041A","EPOCH":"2026-04-27T19:54:26.290080","MEAN_MOTION":14.1455952,"ECCENTRICITY":0.0032818,"INCLINATION":70.898,"RA_OF_ASC_NODE":290.5267,"ARG_OF_PERICENTER":306.0766,"MEAN_ANOMALY":53.7317,"EPHEMERIS_TYPE":0,"CLASSIFICATION_TYPE":"U","NORAD_CAT_ID":17973,"ELEMENT_SET_NO":999,"REV_AT_EPOCH":1053,"BSTAR":-0.00012876,"MEAN_MOTION_DOT":-2.97e-6,"MEAN_MOTION_DDOT":0},{"OBJECT_NAME":"SL-14 R/B","OBJECT_ID":"1987-055B","EPOCH":"2026-04-27T18:39:44.836128","MEAN_MOTION":14.85670681,"ECCENTRICITY":0.0019885,"INCLINATION":82.4966,"RA_OF_ASC_NODE":302.7581,"ARG_OF_PERICENTER":207.6091,"MEAN_ANOMALY":152.4071,"EPHEMERIS_TYPE":0,"CLASSIFICATION_TYPE":"U","NORAD_CAT_ID":18153,"ELEMENT_SET_NO":999,"REV_AT_EPOCH":7722,"BSTAR":5.1036e-5,"MEAN_MOTION_DOT":4.68e-6,"MEAN_MOTION_DDOT":0},{"OBJECT_NAME":"COSMOS 1867","OBJECT_ID":"1987-060A","EPOCH":"2026-04-27T09:56:17.343168","MEAN_MOTION":14.31509916,"ECCENTRICITY":0.0015439,"INCLINATION":65.0096,"RA_OF_ASC_NODE":170.2512,"ARG_OF_PERICENTER":281.0365,"MEAN_ANOMALY":78.8983,"EPHEMERIS_TYPE":0,"CLASSIFICATION_TYPE":"U","NORAD_CAT_ID":18187,"ELEMENT_SET_NO":999,"REV_AT_EPOCH":2691,"BSTAR":2.658e-5,"MEAN_MOTION_DOT":-2.9e-7,"MEAN_MOTION_DDOT":0},{"OBJECT_NAME":"SL-14 R/B","OBJECT_ID":"1988-001B","EPOCH":"2026-04-27T15:23:53.534112","MEAN_MOTION":14.8557169,"ECCENTRICITY":0.0019613,"INCLINATION":82.5121,"RA_OF_ASC_NODE":149.3281,"ARG_OF_PERICENTER":77.8347,"MEAN_ANOMALY":282.5064,"EPHEMERIS_TYPE":0,"CLASSIFICATION_TYPE":"U","NORAD_CAT_ID":18749,"ELEMENT_SET_NO":999,"REV_AT_EPOCH":4929,"BSTAR":4.1914e-5,"MEAN_MOTION_DOT":3.88e-6,"MEAN_MOTION_DDOT":0},{"OBJECT_NAME":"COSMOS 1933","OBJECT_ID":"1988-020A","EPOCH":"2026-04-27T16:40:01.116768","MEAN_MOTION":15.18406762,"ECCENTRICITY":0.0004784,"INCLINATION":82.5158,"RA_OF_ASC_NODE":202.4198,"ARG_OF_PERICENTER":47.9057,"MEAN_ANOMALY":312.2583,"EPHEMERIS_TYPE":0,"CLASSIFICATION_TYPE":"U","NORAD_CAT_ID":18958,"ELEMENT_SET_NO":999,"REV_AT_EPOCH":5766,"BSTAR":0.00018626,"MEAN_MOTION_DOT":3.861e-5,"MEAN_MOTION_DDOT":0},{"OBJECT_NAME":"SL-3 R/B","OBJECT_ID":"1988-032B","EPOCH":"2026-04-27T20:05:32.108352","MEAN_MOTION":15.20409676,"ECCENTRICITY":0.0027425,"INCLINATION":97.5233,"RA_OF_ASC_NODE":100.9536,"ARG_OF_PERICENTER":64.6318,"MEAN_ANOMALY":295.7752,"EPHEMERIS_TYPE":0,"CLASSIFICATION_TYPE":"U","NORAD_CAT_ID":19046,"ELEMENT_SET_NO":999,"REV_AT_EPOCH":5957,"BSTAR":0.00028018,"MEAN_MOTION_DOT":6.097e-5,"MEAN_MOTION_DDOT":0},{"OBJECT_NAME":"SL-16 R/B","OBJECT_ID":"1988-039B","EPOCH":"2026-04-27T19:27:34.081632","MEAN_MOTION":14.19624259,"ECCENTRICITY":0.0024052,"INCLINATION":71.0151,"RA_OF_ASC_NODE":324.6825,"ARG_OF_PERICENTER":265.0345,"MEAN_ANOMALY":94.8034,"EPHEMERIS_TYPE":0,"CLASSIFICATION_TYPE":"U","NORAD_CAT_ID":19120,"ELEMENT_SET_NO":999,"REV_AT_EPOCH":96535,"BSTAR":8.1166e-5,"MEAN_MOTION_DOT":1.24e-6,"MEAN_MOTION_DDOT":0},{"OBJECT_NAME":"COSMOS 1953","OBJECT_ID":"1988-050A","EPOCH":"2026-04-27T17:05:07.899072","MEAN_MOTION":15.29243368,"ECCENTRICITY":0.0009199,"INCLINATION":82.5046,"RA_OF_ASC_NODE":108.9014,"ARG_OF_PERICENTER":318.7822,"MEAN_ANOMALY":41.2722,"EPHEMERIS_TYPE":0,"CLASSIFICATION_TYPE":"U","NORAD_CAT_ID":19210,"ELEMENT_SET_NO":999,"REV_AT_EPOCH":4527,"BSTAR":0.00029068,"MEAN_MOTION_DOT":8.288e-5,"MEAN_MOTION_DDOT":0}]
